ORBCOMM FM24            
1 25478U 98053D   26008.26927031  .00001345  00000+0  48013-3 0  9998
2 25478  45.0095  16.2714 0002899 231.0457 129.0133 14.38740929426976
ORBCOMM FM25            
1 25479U 98053E   26008.31433678  .00001435  00000+0  50937-3 0  9992
2 25479  45.0085  14.3608 0005135 220.5540 139.4926 14.38709530427271
ORBCOMM FM26            
1 25480U 98053F   26008.25776968  .00001125  00000+0  41765-3 0  9994
2 25480  45.0083  12.6315 0007330 227.6651 132.3577 14.37668290427154
ORBCOMM FM27            
1 25481U 98053G   26008.08900058  .00001256  00000+0  45116-3 0  9994
2 25481  45.0068  15.5534 0002449 262.5127  97.5444 14.38745100427179
ORBCOMM FM28            
1 25482U 98053H   26008.24305710  .00001206  00000+0  43403-3 0  9999
2 25482  45.0062 312.0763 0005378 267.5964  92.4269 14.38864901427889
ORBCOMM FM30            
1 25980U 99065A   26008.22430670  .00000879  00000+0  33562-3 0  9998
2 25980  45.0295 198.8406 0005847 319.1490  40.8920 14.37826749363958
ORBCOMM FM31            
1 25981U 99065B   26008.20727490  .00000962  00000+0  36373-3 0  9992
2 25981  45.0208 192.3702 0003413 349.3486  10.7289 14.37752699363505
ORBCOMM FM32            
1 25982U 99065C   26008.24994723  .00000844  00000+0  33091-3 0  9995
2 25982  45.0137 210.1167 0005950 343.1021  16.9628 14.36814041364084
